SHIJIAN-31 (SJ-31)      
1 69570U 26136A   26197.10692476 -.00000248  00000+0  00000+0 0  9998
2 69570  63.4879 353.1013 6939943 171.8484 212.2796  1.92225244   648
CZ-3B R/B               
1 69571U 26136B   26194.21531152  .00411847  89933-7  60349-3 0  9997
2 69571  63.4303 350.8798 7256733 171.5015 216.3709  2.38066580   637
GUOWANG OBJECT A        
1 69572U 26137A   26193.89246529 -.00000143  00000+0  24502-5 0  9990
2 69572  49.9997 153.0717 0012495 311.3863  48.5960 13.89812741  3591
GUOWANG OBJECT B        
1 69573U 26137B   26190.65385973 -.00000214  00000+0 -55136-4 0  9995
2 69573  50.0016 165.9303 0011859 298.8434  61.1273 13.89803849  3155
GUOWANG OBJECT C        
1 69574U 26137C   26193.88847439 -.00000180  00000+0 -27480-4 0  9997
2 69574  49.9967 153.0345 0011896 311.4365  48.5511 13.89814739  3602
GUOWANG OBJECT D        
1 69575U 26137D   26190.65162700 -.00000168  00000+0 -17667-4 0  9993
2 69575  49.9953 165.9027 0011086 299.2996  60.6794 13.89827781  3150
GUOWANG OBJECT E        
1 69576U 26137E   26193.02348711 -.00000204  00000+0 -46563-4 0  9994
2 69576  50.0038 156.4799 0011224 310.0552  49.9361 13.89824941  3484
GUOWANG OBJECT F        
1 69577U 26137F   26192.30363530 -.00000204  00000+0 -46815-4 0  9991
2 69577  50.0028 159.3340 0010834 307.7048  52.2867 13.89809360  3382
GUOWANG OBJECT G        
1 69578U 26137G   26192.30278168 -.00000142  00000+0  35461-5 0  9990
2 69578  49.9952 159.3085 0010806 307.5258  52.4657 13.89795025  3383
GUOWANG OBJECT H        
1 69579U 26137H   26191.00768142 -.00000175  00000+0 -23862-4 0  9991
2 69579  50.0012 164.4679 0010249 306.3680  53.6272 13.89776278  3203
GUOWANG OBJECT J        
1 69580U 26137J   26178.27848690  .00000022  00000+0  13174-3 0  9997
2 69580  49.9961 215.0979 0011832 257.3150 102.6427 13.91997107  1436
CZ-12 R/B               
1 69581U 26137K   26194.27991700 -.00000112  00000+0  22245-4 0  9998
2 69581  49.9888 147.7098 0077441 203.1402 156.6010 14.11694334  3691
CENTISPACE-1 GROUP 05 O*
1 69582U 26138A   26194.34106729 -.00000052  00000+0  51929-4 0  9991
2 69582  55.1388 184.5993 0011308 340.3719  19.6818 14.15470945  3726
CENTISPACE-1 GROUP 05 O*
1 69583U 26138B   26194.47892911 -.00000145  00000+0  42988-5 0  9990
2 69583  55.1382 184.0587 0010295 341.1535  18.9057 14.15650579  3746
CENTISPACE-1 GROUP 05 O*
1 69584U 26138C   26194.47735153 -.00000196  00000+0 -21642-4 0  9995
2 69584  55.1387 184.0592 0010227 342.7982  17.2644 14.15734094  3745
CENTISPACE-1 GROUP 05 O*
1 69585U 26138D   26194.47408623 -.00000301  00000+0 -74602-4 0  9997
2 69585  55.1385 184.0335 0009819 342.0163  18.0463 14.15919525  3740
CENTISPACE-1 GROUP 05 O*
1 69586U 26138E   26194.68463529 -.00000301  00000+0 -74193-4 0  9992
2 69586  55.1377 183.2516 0009571 343.0370  17.0283 14.15986491  3778
CENTISPACE-1 GROUP 05 O*
1 69587U 26138F   26193.97992150 -.00000292  00000+0 -69905-4 0  9995
2 69587  55.1382 185.8680 0009436 345.5018  14.5684 14.15909909  3676
CENTISPACE-1 GROUP 05 O*
1 69588U 26138G   26193.41218649 -.00000375  00000+0 -11167-3 0  9997
2 69588  55.1383 187.9363 0008629 344.0005  16.0696 14.16073930  3590
SPACEMOBILE-008         
1 69589U 26139A   26197.07775194  .00000112  00000+0  23292-4 0  9998
2 69589  52.9949 131.4004 0005099  58.6055 301.5434 15.12802643  4356
SPACEMOBILE-009         
1 69590U 26139B   26197.07977669  .00000164  00000+0  26252-4 0  9997
2 69590  52.9940 131.4074 0005334  54.4529 305.6959 15.12696048  4355
SPACEMOBILE-010         
1 69591U 26139C   26197.08298715  .00000357  00000+0  37307-4 0  9994
2 69591  52.9947 131.4304 0005267  46.4415 313.7013 15.12529017  4362
KUIPER-00423            
1 69592U 26140A   26197.15686905  .00015889  00000+0  41910-3 0  9997
2 69592  51.8786 258.3930 0013525 272.3557  87.5882 15.38565839  5696
KUIPER-00428            
1 69593U 26140B   26197.19647517  .00013253  00000+0  37062-3 0  9994
2 69593  51.8788 258.6493 0008215  33.9427 326.2084 15.36965531  5691
KUIPER-00481            
1 69594U 26140C   26197.16840419  .00015103  00000+0  40615-3 0  9992
2 69594  51.8774 258.4629 0010966 283.2655  76.7108 15.38040276  5691
KUIPER-00490            
1 69595U 26140D   26196.39845832  .00011430  00000+0  31116-3 0  9996
2 69595  51.8773 262.2942 0006538 340.6675  19.4063 15.37963668  5571
KUIPER-00493            
1 69596U 26140E   26197.20205060  .00011641  00000+0  33060-3 0  9995
2 69596  51.8787 258.6890 0008294  42.2379 317.9245 15.36614156  5690
KUIPER-00496            
1 69597U 26140F   26196.51122615  .00011084  00000+0  33895-3 0  9990
2 69597  51.8786 262.2928 0010507  47.5263 312.6609 15.34314068  5584
KUIPER-00513            
1 69598U 26140G   26197.17481270  .00012840  00000+0  34580-3 0  9992
2 69598  51.8793 258.5128 0007498 343.5106  16.5636 15.38173639  5696
KUIPER-00516            
1 69599U 26140H   26196.40352828  .00007549  00000+0  21163-3 0  9997
2 69599  51.8775 262.3325 0007142 355.5111   4.5811 15.37594249  5576
KUIPER-00517            
1 69600U 26140J   26197.15925669  .00026002  00000+0  67460-3 0  9997
2 69600  51.8780 258.4032 0010354 296.9420  63.0509 15.38771993  5697
KUIPER-00520            
1 69601U 26140K   26196.40439250  .00012031  00000+0  33026-3 0  9999
2 69601  51.8807 262.3489 0006785 356.7740   3.3202 15.37649987  5571
KUIPER-00522            
1 69602U 26140L   26197.15612779  .00020007  00000+0  52413-3 0  9995
2 69602  51.8773 258.3876 0012566 273.7865  86.1686 15.38613495  5693
KUIPER-00528            
1 69603U 26140M   26196.40710068  .00007328  00000+0  20643-3 0  9994
2 69603  51.8776 262.3554 0005838   2.7431 357.3587 15.37496668  5578
KUIPER-00532            
1 69604U 26140N   26197.19898116  .00011484  00000+0  32683-3 0  9998
2 69604  51.8773 258.6589 0005956  38.0411 322.0995 15.36575829  5694
KUIPER-00533            
1 69605U 26140P   26196.52110464  .00016113  00000+0  42948-3 0  9997
2 69605  51.8788 261.6239 0008017 329.7919  30.2605 15.38285218  5598
KUIPER-00534            
1 69606U 26140Q   26197.15091125  .00019212  00000+0  50145-3 0  9991
2 69606  51.8818 258.3620 0013036 274.2219  85.7279 15.38749471  5693
KUIPER-00537            
1 69607U 26140R   26196.70358682  .00011098  00000+0  34099-3 0  9990
2 69607  51.8798 261.3400 0010192  58.6014 301.5967 15.34164380  5619
KUIPER-00538            
1 69608U 26140S   26197.18177255  .00013311  00000+0  36308-3 0  9994
2 69608  51.8799 258.5570 0006581 348.4911  11.5924 15.37747330  5694
KUIPER-00540            
1 69609U 26140T   26197.19419037  .00010925  00000+0  30743-3 0  9998
2 69609  51.8798 258.6387 0006984  26.7612 333.3734 15.36978486  5693
KUIPER-00541            
1 69610U 26140U   26197.17031354  .00017785  00000+0  47055-3 0  9995
2 69610  51.8800 258.4872 0007856 329.1534  30.8991 15.38438450  5696
KUIPER-00542            
1 69611U 26140V   26197.16919310  .00012198  00000+0  32763-3 0  9995
2 69611  51.8766 258.4689 0007860 310.9817  49.0489 15.38305625  5692
KUIPER-00543            
1 69612U 26140W   26197.19884125  .00011146  00000+0  31464-3 0  9993
2 69612  51.8778 258.6591 0008188  38.2763 321.8803 15.36851259  5692
KUIPER-00544            
1 69613U 26140X   26197.17374265  .00022895  00000+0  60707-3 0  9996
2 69613  51.8776 258.4975 0006996 325.3560  34.6971 15.38204692  5695
KUIPER-00546            
1 69614U 26140Y   26197.15225378  .00035966  00000+0  94797-3 0  9994
2 69614  51.8770 258.3563 0014135 264.6260  95.3115 15.38070496  5695
KUIPER-00547            
1 69615U 26140Z   26197.16806966  .00020463  00000+0  54781-3 0  9999
2 69615  51.8819 258.4719 0010989 294.4235  65.5605 15.37947744  5691
KUIPER-00549            
1 69616U 26140AA  26196.40881279  .00007464  00000+0  21107-3 0  9998
2 69616  51.8779 262.3670 0007939  16.4596 343.6647 15.37336482  5574
KUIPER-00550            
1 69617U 26140AB  26197.17619755 -.00016456  00000+0 -51352-3 0  9990
2 69617  51.8789 259.2458 0007704  62.3850 297.7916 15.32007135  5683
KUIPER-00551            
1 69618U 26140AC  26195.47110642  .00013109  00000+0  35160-3 0  9992
2 69618  51.8780 266.5873 0012173 275.8264  84.1335 15.38237315  5430
KUIPER-00554            
1 69619U 26140AD  26197.16618560  .00021006  00000+0  56103-3 0  9998
2 69619  51.8779 258.4492 0010532 294.7161  65.2729 15.38008185  5695
KUIPER-00555            
1 69620U 26140AE  26197.16668980  .00030466  00000+0  80863-3 0  9991
2 69620  51.8811 258.4252 0011308 282.6873  94.8377 15.37974184  5165
KUIPER-00556            
1 69621U 26140AF  26196.51247523  .00014294  00000+0  38112-3 0  9997
2 69621  51.8798 261.5737 0011978 269.4470  90.5145 15.38342895  5594
KUIPER-00557            
1 69622U 26140AG  26196.39237908  .00012541  00000+0  34485-3 0  9992
2 69622  51.8799 262.2684 0009730 300.5398  59.4628 15.37532137  5571
KUIPER-00560            
1 69623U 26140AH  26197.16668980  .00029968  00000+0  82167-3 0  9998
2 69623  51.8782 258.4135 0009146 315.4770  63.2439 15.36998116  5274
KUIPER-00561            
1 69624U 26140AJ  26196.44970648  .00008740  00000+0  23456-3 0  9997
2 69624  51.8811 261.9079 0008173 307.9079  52.1169 15.38731571  5584
KUIPER-00564            
1 69625U 26140AK  26196.51943950  .00014541  00000+0  40220-3 0  9996
2 69625  51.8790 261.6212 0009230 303.1110  56.8990 15.37214015  5598
KUIPER-00567            
1 69626U 26140AL  26197.16668980  .00032082  00000+0  84116-3 0  9998
2 69626  51.8767 258.3683 0012878 272.7466 127.1285 15.38305331  5676
KUIPER-00573            
1 69627U 26140AM  26196.46120252  .00013619  00000+0  37413-3 0  9999
2 69627  51.8775 261.9707 0009393 287.3188  72.6771 15.37486142  5587
KZ-11 R/B               
1 69628U 26138H   26193.90834216  .00780150  97501-5  75497-3 0  9998
2 69628  55.1520 167.7492 0377051 143.6026 219.1292 15.43010363  3894
CENTISPACE-1 GROUP 05 O*
1 69636U 26138J   26194.40472368 -.00000256  00000+0 -51944-4 0  9997
2 69636  55.1383 184.3032 0009547 341.3483  18.7141 14.15842380  3707
